      2.10          N: GNSS NAV DATA                        RINEX VERSION / TYPE
fic2rin                                 02/06/2024 00:17:56 PGM / RUN BY / DATE
                                                            END OF HEADER
8  24  2  5  1 59 28.0 -.165492761880D-03 -.181898940355D-11  .000000000000D+00
     .157000000000D+03  .102062500000D+03  .461519224128D-08 -.158285245851D+01
     .501237809658D-05  .931324111298D-02  .522844493389D-05  .515358699989D+04
     .935680000000D+05  .372529029846D-07  .294779601597D+01 -.165775418282D-06
     .955172141314D+00  .274125000000D+03  .312701096204D+00 -.816176854185D-08
     .188222125921D-09  .100000000000D+01  .230000000000D+04  .000000000000D+00
     .240000000000D+01  .000000000000D+00  .512227416039D-08  .157000000000D+03
     .864000000000D+05  .400000000000D+01
16 24  2  5 16  0  0.0 -.369139946997D-03  .818545231596D-11  .000000000000D+00
     .101000000000D+03  .529687500000D+02  .451590239118D-08  .483864893109D+00
     .304542481899D-05  .139914628817D-01  .885315239429D-05  .515372652054D+04
     .144000000000D+06 -.102445483208D-06  .201928336081D+01  .154599547386D-06
     .962518548715D+00  .210343750000D+03  .822000452738D+00 -.802747723379D-08
    -.542522598244D-09  .100000000000D+01  .230000000000D+04  .000000000000D+00
     .240000000000D+01  .000000000000D+00 -.102445483208D-07  .101000000000D+03
     .136800000000D+06  .400000000000D+01
22 24  2  5 16  0  0.0  .361655838788D-04 -.625277607469D-11  .000000000000D+00
     .610000000000D+02  .440312500000D+02  .455733268834D-08  .559186728257D-01
     .230222940445D-05  .145710970974D-01  .957958400249D-05  .515371998024D+04
     .144000000000D+06 -.143423676491D-06  .202258335729D+01 -.175088644028D-06
     .961815138204D+00  .199218750000D+03 -.114299133223D+01 -.816391148825D-08
    -.457161899771D-09  .100000000000D+01  .230000000000D+04  .000000000000D+00
     .240000000000D+01  .000000000000D+00 -.111758708954D-07  .610000000000D+02
     .136800000000D+06  .400000000000D+01
25 24  2  5 16  0  0.0  .487648881972D-03  .125055521494D-11  .000000000000D+00
     .350000000000D+02  .359687500000D+02  .466983737461D-08  .212405919943D+01
     .165589153767D-05  .118030745070D-01  .891089439392D-05  .515361851692D+04
     .144000000000D+06 -.521540641785D-07  .191598666696D+01 -.232830643654D-06
     .950784117072D+00  .200500000000D+03  .107219550961D+01 -.787389940809D-08
    -.426446334630D-09  .100000000000D+01  .230000000000D+04  .000000000000D+00
     .240000000000D+01  .000000000000D+00  .558793544769D-08  .350000000000D+02
     .136800000000D+06  .400000000000D+01
31 24  2  5 16  0  0.0 -.227665062994D-03 -.113686837722D-12  .000000000000D+00
     .930000000000D+02  .193750000000D+01  .501592321905D-08  .208770304459D+01
     .149011611938D-07  .105923869414D-01  .710226595402D-05  .515366977310D+04
     .144000000000D+06 -.240281224251D-06  .906541836078D+00 -.726431608200D-07
     .954172074423D+00  .242406250000D+03  .657057309737D+00 -.801319092442D-08
    -.600024993449D-10  .100000000000D+01  .230000000000D+04  .000000000000D+00
     .240000000000D+01  .000000000000D+00 -.135041773319D-07  .930000000000D+02
     .136800000000D+06  .400000000000D+01
17 24  2  5 16  0  0.0  .717892311513D-03 -.113686837722D-11  .000000000000D+00
     .960000000000D+02  .108968750000D+03  .425089135240D-08 -.459838186975D+00
     .561960041523D-05  .136017133482D-01  .660121440887D-05  .515367047501D+04
     .144000000000D+06 -.193715095520D-06  .304029710878D+01 -.186264514923D-08
     .970927101937D+00  .262468750000D+03 -.133789475077D+01 -.824391482071D-08
     .696457581682D-10  .100000000000D+01  .230000000000D+04  .000000000000D+00
     .340000000000D+01  .000000000000D+00 -.111758708954D-07  .960000000000D+02
     .136800000000D+06  .400000000000D+01
19 24  2  5 16  0  0.0  .436502974480D-03  .534328137292D-11  .000000000000D+00
     .620000000000D+02  .114468750000D+03  .419267464173D-08  .158153838503D+01
     .590272247791D-05  .945415289607D-02  .569224357605D-05  .515369061279D+04
     .144000000000D+06  .128522515297D-06  .308466249287D+01  .577419996262D-07
     .970091648440D+00  .271343750000D+03  .247698089487D+01 -.795783147562D-08
    -.106790162525D-09  .100000000000D+01  .230000000000D+04  .000000000000D+00
     .240000000000D+01  .000000000000D+00 -.153668224812D-07  .620000000000D+02
     .136800000000D+06  .400000000000D+01
18 24  2  5 16  0  0.0 -.548886600882D-03 -.864019966684D-11  .000000000000D+00
     .170000000000D+03 -.918750000000D+01  .421910431406D-08 -.253669467563D+01
    -.515952706337D-06  .383329926990D-02  .199675559998D-05  .515362882042D+04
     .144000000000D+06 -.428408384323D-07 -.223881778183D+01 -.540167093277D-07
     .974458327244D+00  .349062500000D+03 -.302214624969D+01 -.812105256015D-08
     .225009372544D-10  .100000000000D+01  .230000000000D+04  .000000000000D+00
     .240000000000D+01  .000000000000D+00 -.838190317154D-08  .170000000000D+03
     .136800000000D+06  .400000000000D+01
11 24  2  5 16  0  0.0 -.565530266613D-03 -.131876731757D-10  .000000000000D+00
     .202000000000D+03 -.531250000000D+01  .448375819510D-08 -.129540962749D+01
    -.325962901115D-06  .124522170518D-02  .165030360222D-05  .515365932846D+04
     .144000000000D+06  .128522515297D-06 -.220891482050D+01 -.242143869400D-07
     .966088548666D+00  .353468750000D+03 -.247308368403D+01 -.827963059413D-08
    -.307155651409D-10  .100000000000D+01  .230000000000D+04  .000000000000D+00
     .240000000000D+01  .000000000000D+00 -.838190317154D-08  .714000000000D+03
     .136800000000D+06  .400000000000D+01
28 24  2  5 16  0  0.0 -.121191609651D-03 -.123918653117D-10  .000000000000D+00
     .222000000000D+03  .331250000000D+01  .488448917287D-08  .146495788154D+01
     .188127160072D-06  .689620734192D-03  .680424273014D-05  .515357811546D+04
     .144000000000D+06 -.204890966415D-07  .851127416485D+00  .149011611938D-07
     .961325299103D+00  .249312500000D+03  .172226839932D+01 -.798354683249D-08
    -.132148361653D-10  .100000000000D+01  .230000000000D+04  .000000000000D+00
     .240000000000D+01  .000000000000D+00 -.931322574615D-08  .222000000000D+03
     .136800000000D+06  .400000000000D+01
24 24  2  5 16  0  0.0 -.426691956818D-03 -.648014975013D-11  .000000000000D+00
     .142000000000D+03  .359375000000D+01  .546308470226D-08 -.229381593686D+01
     .558793544769D-07  .150920174783D-01  .623054802418D-05  .515372149086D+04
     .144000000000D+06  .232830643654D-06  .790395964079D+00 -.651925802231D-07
     .933908881579D+00  .242406250000D+03  .966768420825D+00 -.818141221723D-08
     .236081262304D-09  .100000000000D+01  .230000000000D+04  .000000000000D+00
     .240000000000D+01  .000000000000D+00  .232830643654D-08  .142000000000D+03
     .136800000000D+06  .400000000000D+01
27 24  2  5 16  0  0.0 -.134343281388D-05 -.352429196937D-11  .000000000000D+00
     .126000000000D+03  .108406250000D+03  .440268338944D-08 -.395018734344D+00
     .573322176933D-05  .123294766527D-01  .575371086597D-05  .515368052483D+04
     .144000000000D+06  .931322574615D-07  .297287249456D+01  .171363353729D-06
     .964160918567D+00  .269250000000D+03  .754902224319D+00 -.824820071352D-08
    -.625026034843D-10  .100000000000D+01  .230000000000D+04  .000000000000D+00
     .240000000000D+01  .000000000000D+00  .186264514923D-08  .126000000000D+03
     .136800000000D+06  .400000000000D+01
14 24  2  5 16  0  0.0  .317834317684D-03  .101181285572D-10  .000000000000D+00
     .118000000000D+03  .481875000000D+02  .483948729836D-08  .224540243169D+01
     .253506004810D-05  .392883177847D-02  .938586890697D-05  .515368892860D+04
     .144000000000D+06 -.132247805595D-06  .195859953809D+01  .558793544769D-07
     .946270948966D+00  .191218750000D+03 -.296301392327D+01 -.804319217410D-08
    -.485734518507D-09  .100000000000D+01  .230000000000D+04  .000000000000D+00
     .240000000000D+01  .000000000000D+00 -.791624188423D-08  .886000000000D+03
     .136800000000D+06  .400000000000D+01
30 24  2  5 16  0  0.0 -.436441507190D-03  .488853402203D-11  .000000000000D+00
     .960000000000D+02  .712500000000D+01  .544879839290D-08  .283556557984D+01
     .352039933205D-06  .675560010131D-02  .671669840813D-05  .515368667412D+04
     .144000000000D+06 -.111758708954D-07  .887782394283D+00 -.113621354103D-06
     .935312037992D+00  .239343750000D+03 -.253808359053D+01 -.818926968738D-08
     .457161899771D-10  .100000000000D+01  .230000000000D+04  .000000000000D+00
     .240000000000D+01  .000000000000D+00  .372529029846D-08  .960000000000D+02
     .136800000000D+06  .400000000000D+01
23 24  2  5 16  0  0.0  .149897765368D-03  .795807864051D-11  .000000000000D+00
     .214000000000D+03 -.105937500000D+03  .395587906396D-08  .265077022450D+01
    -.541843473911D-05  .398038257845D-02  .701285898685D-05  .515370810699D+04
     .144000000000D+06 -.726431608200D-07 -.123812345103D+01 -.149011611938D-07
     .977402885828D+00  .251312500000D+03 -.296642436860D+01 -.778853870961D-08
     .450018745087D-10  .100000000000D+01  .230000000000D+04  .000000000000D+00
     .240000000000D+01  .000000000000D+00 -.838190317154D-08  .470000000000D+03
     .136800000000D+06  .400000000000D+01
1  24  2  5 16  0  0.0  .168404541910D-03  .136424205266D-11  .000000000000D+00
     .470000000000D+02 -.230937500000D+02  .388837625219D-08 -.279852960844D+01
    -.115297734737D-05  .126891076798D-01  .141933560371D-05  .515400428009D+04
     .144000000000D+06  .745058059692D-07 -.223609144673D+01 -.745058059692D-07
     .990557863591D+00  .368843750000D+03  .999049201884D+00 -.786461330700D-08
     .364300888880D-10  .100000000000D+01  .230000000000D+04  .000000000000D+00
     .340000000000D+01  .630000000000D+02  .512227416039D-08  .470000000000D+02
     .136980000000D+06  .400000000000D+01
